CCSDS_OMM_VERS = 2.0
CREATION_DATE  = 
ORIGINATOR     = 

OBJECT_NAME    = IDEFIX & ARIANE 42P R/B
OBJECT_ID      = 2002-021B
CENTER_NAME    = EARTH
REF_FRAME      = TEME
TIME_SYSTEM    = UTC
MEAN_ELEMENT_THEORY = SGP/SGP4

EPOCH          = 2026-02-12T19:32:06.042048
MEAN_MOTION    = 14.31008057
ECCENTRICITY   = .0010637
INCLINATION    = 98.5844
RA_OF_ASC_NODE = 342.7216
ARG_OF_PERICENTER = 260.6930
MEAN_ANOMALY   = 99.3050

EPHEMERIS_TYPE = 0
CLASSIFICATION_TYPE = U
NORAD_CAT_ID   = 27422
ELEMENT_SET_NO = 999
REV_AT_EPOCH   = 24046
BSTAR          = .13156E-3
MEAN_MOTION_DOT = .302E-5
MEAN_MOTION_DDOT = 0

CCSDS_OMM_VERS = 2.0
CREATION_DATE  = 
ORIGINATOR     = 

OBJECT_NAME    = AQUA
OBJECT_ID      = 2002-022A
CENTER_NAME    = EARTH
REF_FRAME      = TEME
TIME_SYSTEM    = UTC
MEAN_ELEMENT_THEORY = SGP/SGP4

EPOCH          = 2026-02-12T21:37:29.914752
MEAN_MOTION    = 14.61914554
ECCENTRICITY   = .0001368
INCLINATION    = 98.4127
RA_OF_ASC_NODE = 10.8236
ARG_OF_PERICENTER = 50.0438
MEAN_ANOMALY   = 332.5273

EPHEMERIS_TYPE = 0
CLASSIFICATION_TYPE = U
NORAD_CAT_ID   = 27424
ELEMENT_SET_NO = 999
REV_AT_EPOCH   = 26511
BSTAR          = .23564E-3
MEAN_MOTION_DOT = .113E-4
MEAN_MOTION_DDOT = 0

CCSDS_OMM_VERS = 2.0
CREATION_DATE  = 
ORIGINATOR     = 

OBJECT_NAME    = CZ-4B R/B
OBJECT_ID      = 2002-024C
CENTER_NAME    = EARTH
REF_FRAME      = TEME
TIME_SYSTEM    = UTC
MEAN_ELEMENT_THEORY = SGP/SGP4

EPOCH          = 2026-02-12T18:13:36.274368
MEAN_MOTION    = 14.14543118
ECCENTRICITY   = .0051198
INCLINATION    = 98.8897
RA_OF_ASC_NODE = 97.2848
ARG_OF_PERICENTER = 93.9232
MEAN_ANOMALY   = 15.0607

EPHEMERIS_TYPE = 0
CLASSIFICATION_TYPE = U
NORAD_CAT_ID   = 27432
ELEMENT_SET_NO = 999
REV_AT_EPOCH   = 22571
BSTAR          = .45822E-4
MEAN_MOTION_DOT = .45E-6
MEAN_MOTION_DDOT = 0

CCSDS_OMM_VERS = 2.0
CREATION_DATE  = 
ORIGINATOR     = 

OBJECT_NAME    = MIDORI II (ADEOS-II)
OBJECT_ID      = 2002-056A
CENTER_NAME    = EARTH
REF_FRAME      = TEME
TIME_SYSTEM    = UTC
MEAN_ELEMENT_THEORY = SGP/SGP4

EPOCH          = 2026-02-12T19:29:02.361696
MEAN_MOTION    = 14.29266300
ECCENTRICITY   = .0002175
INCLINATION    = 98.7723
RA_OF_ASC_NODE = 2.1248
ARG_OF_PERICENTER = 77.2210
MEAN_ANOMALY   = 282.9215

EPHEMERIS_TYPE = 0
CLASSIFICATION_TYPE = U
NORAD_CAT_ID   = 27597
ELEMENT_SET_NO = 999
REV_AT_EPOCH   = 20674
BSTAR          = .15418E-3
MEAN_MOTION_DOT = .347E-5
MEAN_MOTION_DDOT = 0

CCSDS_OMM_VERS = 2.0
CREATION_DATE  = 
ORIGINATOR     = 

OBJECT_NAME    = H-2A R/B
OBJECT_ID      = 2002-056E
CENTER_NAME    = EARTH
REF_FRAME      = TEME
TIME_SYSTEM    = UTC
MEAN_ELEMENT_THEORY = SGP/SGP4

EPOCH          = 2026-02-12T20:33:48.617280
MEAN_MOTION    = 14.33743154
ECCENTRICITY   = .0069153
INCLINATION    = 98.3155
RA_OF_ASC_NODE = 5.1747
ARG_OF_PERICENTER = 235.1011
MEAN_ANOMALY   = 153.9685

EPHEMERIS_TYPE = 0
CLASSIFICATION_TYPE = U
NORAD_CAT_ID   = 27601
ELEMENT_SET_NO = 999
REV_AT_EPOCH   = 21055
BSTAR          = .12619E-3
MEAN_MOTION_DOT = .318E-5
MEAN_MOTION_DDOT = 0

CCSDS_OMM_VERS = 2.0
CREATION_DATE  = 
ORIGINATOR     = 

OBJECT_NAME    = CZ-4B R/B
OBJECT_ID      = 2003-049C
CENTER_NAME    = EARTH
REF_FRAME      = TEME
TIME_SYSTEM    = UTC
MEAN_ELEMENT_THEORY = SGP/SGP4

EPOCH          = 2026-02-12T13:23:45.792960
MEAN_MOTION    = 14.54992795
ECCENTRICITY   = .0047295
INCLINATION    = 98.6851
RA_OF_ASC_NODE = 37.4826
ARG_OF_PERICENTER = 309.3895
MEAN_ANOMALY   = 50.3117

EPHEMERIS_TYPE = 0
CLASSIFICATION_TYPE = U
NORAD_CAT_ID   = 28059
ELEMENT_SET_NO = 999
REV_AT_EPOCH   = 18294
BSTAR          = .13166E-3
MEAN_MOTION_DOT = .523E-5
MEAN_MOTION_DDOT = 0

CCSDS_OMM_VERS = 2.0
CREATION_DATE  = 
ORIGINATOR     = 

OBJECT_NAME    = CZ-2C R/B
OBJECT_ID      = 2004-012C
CENTER_NAME    = EARTH
REF_FRAME      = TEME
TIME_SYSTEM    = UTC
MEAN_ELEMENT_THEORY = SGP/SGP4

EPOCH          = 2026-02-12T16:54:10.348416
MEAN_MOTION    = 15.61636627
ECCENTRICITY   = .0015593
INCLINATION    = 97.7300
RA_OF_ASC_NODE = 106.6817
ARG_OF_PERICENTER = 45.9095
MEAN_ANOMALY   = 314.3442

EPHEMERIS_TYPE = 0
CLASSIFICATION_TYPE = U
NORAD_CAT_ID   = 28222
ELEMENT_SET_NO = 999
REV_AT_EPOCH   = 20037
BSTAR          = .60098E-3
MEAN_MOTION_DOT = .52105E-3
MEAN_MOTION_DDOT = 0

CCSDS_OMM_VERS = 2.0
CREATION_DATE  = 
ORIGINATOR     = 

OBJECT_NAME    = SL-16 R/B
OBJECT_ID      = 2004-021B
CENTER_NAME    = EARTH
REF_FRAME      = TEME
TIME_SYSTEM    = UTC
MEAN_ELEMENT_THEORY = SGP/SGP4

EPOCH          = 2026-02-12T18:40:47.921088
MEAN_MOTION    = 14.14591848
ECCENTRICITY   = .0003087
INCLINATION    = 70.9992
RA_OF_ASC_NODE = 284.7731
ARG_OF_PERICENTER = 71.9554
MEAN_ANOMALY   = 288.1905

EPHEMERIS_TYPE = 0
CLASSIFICATION_TYPE = U
NORAD_CAT_ID   = 28353
ELEMENT_SET_NO = 999
REV_AT_EPOCH   = 11931
BSTAR          = .16246E-3
MEAN_MOTION_DOT = .265E-5
MEAN_MOTION_DDOT = 0

CCSDS_OMM_VERS = 2.0
CREATION_DATE  = 
ORIGINATOR     = 

OBJECT_NAME    = CZ-4B R/B
OBJECT_ID      = 2004-035C
CENTER_NAME    = EARTH
REF_FRAME      = TEME
TIME_SYSTEM    = UTC
MEAN_ELEMENT_THEORY = SGP/SGP4

EPOCH          = 2026-02-12T13:54:11.476800
MEAN_MOTION    = 15.28595907
ECCENTRICITY   = .0033917
INCLINATION    = 97.3547
RA_OF_ASC_NODE = 78.1272
ARG_OF_PERICENTER = 59.5552
MEAN_ANOMALY   = 300.9031

EPHEMERIS_TYPE = 0
CLASSIFICATION_TYPE = U
NORAD_CAT_ID   = 28415
ELEMENT_SET_NO = 999
REV_AT_EPOCH   = 17607
BSTAR          = .3175E-3
MEAN_MOTION_DOT = .891E-4
MEAN_MOTION_DDOT = 0

CCSDS_OMM_VERS = 2.0
CREATION_DATE  = 
ORIGINATOR     = 

OBJECT_NAME    = CZ-2C R/B
OBJECT_ID      = 2004-046B
CENTER_NAME    = EARTH
REF_FRAME      = TEME
TIME_SYSTEM    = UTC
MEAN_ELEMENT_THEORY = SGP/SGP4

EPOCH          = 2026-02-12T19:17:15.297792
MEAN_MOTION    = 14.26983381
ECCENTRICITY   = .013842
INCLINATION    = 98.1994
RA_OF_ASC_NODE = 320.3335
ARG_OF_PERICENTER = 228.1739
MEAN_ANOMALY   = 130.7557

EPHEMERIS_TYPE = 0
CLASSIFICATION_TYPE = U
NORAD_CAT_ID   = 28480
ELEMENT_SET_NO = 999
REV_AT_EPOCH   = 10495
BSTAR          = .59132E-4
MEAN_MOTION_DOT = .117E-5
MEAN_MOTION_DDOT = 0

CCSDS_OMM_VERS = 2.0
CREATION_DATE  = 
ORIGINATOR     = 

OBJECT_NAME    = ARIANE 5 R/B
OBJECT_ID      = 2004-049H
CENTER_NAME    = EARTH
REF_FRAME      = TEME
TIME_SYSTEM    = UTC
MEAN_ELEMENT_THEORY = SGP/SGP4

EPOCH          = 2026-02-12T10:28:31.390752
MEAN_MOTION    = 14.85215465
ECCENTRICITY   = .00854404
INCLINATION    = 98.2585
RA_OF_ASC_NODE = 210.9559
ARG_OF_PERICENTER = 73.2529
MEAN_ANOMALY   = 287.8038

EPHEMERIS_TYPE = 0
CLASSIFICATION_TYPE = U
NORAD_CAT_ID   = 28499
ELEMENT_SET_NO = 999
REV_AT_EPOCH   = 14204
BSTAR          = .12818489E-3
MEAN_MOTION_DOT = .1109E-4
MEAN_MOTION_DDOT = 0

CCSDS_OMM_VERS = 2.0
CREATION_DATE  = 
ORIGINATOR     = 

OBJECT_NAME    = CZ-2D R/B
OBJECT_ID      = 2005-024B
CENTER_NAME    = EARTH
REF_FRAME      = TEME
TIME_SYSTEM    = UTC
MEAN_ELEMENT_THEORY = SGP/SGP4

EPOCH          = 2026-02-12T14:41:12.672672
MEAN_MOTION    = 15.57926705
ECCENTRICITY   = .0007654
INCLINATION    = 97.3618
RA_OF_ASC_NODE = 57.8831
ARG_OF_PERICENTER = 106.2534
MEAN_ANOMALY   = 253.9564

EPHEMERIS_TYPE = 0
CLASSIFICATION_TYPE = U
NORAD_CAT_ID   = 28738
ELEMENT_SET_NO = 999
REV_AT_EPOCH   = 13587
BSTAR          = .49294E-3
MEAN_MOTION_DOT = .36872E-3
MEAN_MOTION_DDOT = 0

