IDEFIX & ARIANE 42P R/B 
1 27422U 02021B   26043.81395882  .00000302  00000+0  13156-3 0  9994
2 27422  98.5844 342.7216 0010637 260.6930  99.3050 14.31008057240466
AQUA                    
1 27424U 02022A   26043.90104068  .00001130  00000+0  23564-3 0  9995
2 27424  98.4127  10.8236 0001368  50.0438 332.5273 14.61914554265110
CZ-4B R/B               
1 27432U 02024C   26043.75944762  .00000045  00000+0  45822-4 0  9998
2 27432  98.8897  97.2848 0051198  93.9232  15.0607 14.14543118225717
MIDORI II (ADEOS-II)    
1 27597U 02056A   26043.81183289  .00000347  00000+0  15418-3 0  9993
2 27597  98.7723   2.1248 0002175  77.2210 282.9215 14.29266300206740
H-2A R/B                
1 27601U 02056E   26043.85681270  .00000318  00000+0  12619-3 0  9994
2 27601  98.3155   5.1747 0069153 235.1011 153.9685 14.33743154210555
CZ-4B R/B               
1 28059U 03049C   26043.55816890  .00000523  00000+0  13166-3 0  9996
2 28059  98.6851  37.4826 0047295 309.3895  50.3117 14.54992795182943
CZ-2C R/B               
1 28222U 04012C   26043.70428644  .00052105  00000+0  60098-3 0  9991
2 28222  97.7300 106.6817 0015593  45.9095 314.3442 15.61636627200374
SL-16 R/B               
1 28353U 04021B   26043.77833242  .00000265  00000+0  16246-3 0  9993
2 28353  70.9992 284.7731 0003087  71.9554 288.1905 14.14591848119313
CZ-4B R/B               
1 28415U 04035C   26043.57929950  .00008910  00000+0  31750-3 0  9999
2 28415  97.3547  78.1272 0033917  59.5552 300.9031 15.28595907176076
CZ-2C R/B               
1 28480U 04046B   26043.80364928  .00000117  00000+0  59132-4 0  9993
2 28480  98.1994 320.3335 0138420 228.1739 130.7557 14.26983381104955
ARIANE 5 R/B            
1 28499U 04049H   26043.43647443  .00001109  00000+0  12818-3 0  9992
2 28499  98.2585 210.9559 0085440  73.2529 287.8038 14.85215465142049
CZ-2D R/B               
1 28738U 05024B   26043.61195223  .00036872  00000+0  49294-3 0  9999
2 28738  97.3618  57.8831 0007654 106.2534 253.9564 15.57926705135874
